[{"OBJECT_NAME":"AFR-1","OBJECT_ID":"2023-084AJ","EPOCH":"2026-03-09T23:02:07.499328","MEAN_MOTION":15.27543824,"ECCENTRICITY":0.00099838,"INCLINATION":97.6099,"RA_OF_ASC_NODE":203.4313,"ARG_OF_PERICENTER":334.9676,"MEAN_ANOMALY":25.1077,"EPHEMERIS_TYPE":0,"CLASSIFICATION_TYPE":"U","NORAD_CAT_ID":56964,"ELEMENT_SET_NO":999,"REV_AT_EPOCH":15207,"BSTAR":0.00024843733,"MEAN_MOTION_DOT":6.624e-5,"MEAN_MOTION_DDOT":0},{"OBJECT_NAME":"STARLINK-31485","OBJECT_ID":"2024-056N","EPOCH":"2026-03-08T12:40:43.421376","MEAN_MOTION":15.27580311,"ECCENTRICITY":0.00014106,"INCLINATION":43.0014,"RA_OF_ASC_NODE":237.5287,"ARG_OF_PERICENTER":254.6385,"MEAN_ANOMALY":105.431,"EPHEMERIS_TYPE":0,"CLASSIFICATION_TYPE":"U","NORAD_CAT_ID":59308,"ELEMENT_SET_NO":999,"REV_AT_EPOCH":11097,"BSTAR":1.5700811e-5,"MEAN_MOTION_DOT":1.7e-6,"MEAN_MOTION_DDOT":0}]
